{"type": "FeatureCollection", "features": [{"type": "Feature", "properties": {"norad_id": 28890, "name": "BEIJING 1", "group": "dmc", "lat": -80.94305765657067, "lon": 170.70513317284554, "alt_km": 692.2606485206179, "timestamp": "2025-12-03T10:52:57.116530+00:00", "meta": {"OBJECT_NAME": "BEIJING 1", "OBJECT_ID": "2005-043A", "EPOCH": "2025-12-03T04:42:47.207808", "MEAN_MOTION": 14.63350951, "ECCENTRICITY": 0.0014828, "INCLINATION": 98.265, "RA_OF_ASC_NODE": 104.6811, "ARG_OF_PERICENTER": 170.3714, "MEAN_ANOMALY": 189.7774, "EPHEMERIS_TYPE": 0, "CLASSIFICATION_TYPE": "U", "NORAD_CAT_ID": 28890, "ELEMENT_SET_NO": 999, "REV_AT_EPOCH": 7198, "BSTAR": 0.000123, "MEAN_MOTION_DOT": 5.87e-06, "MEAN_MOTION_DDOT": 0}, "tle": {"line1": "1 28890U 05043A   25337.19637972  .00000587  00000+0  12300-3 0  9991", "line2": "2 28890  98.2650 104.6811 0014828 170.3714 189.7774 14.63350951 71981"}}, "geometry": {"type": "Point", "coordinates": [170.70513317284554, -80.94305765657067]}}, {"type": "Feature", "properties": {"norad_id": 33320, "name": "HUANJING 1A (HJ-1A)", "group": "dmc", "lat": -6.944161071177656, "lon": -32.92120575523471, "alt_km": 617.700856852377, "timestamp": "2025-12-03T10:52:57.116555+00:00", "meta": {"OBJECT_NAME": "HUANJING 1A (HJ-1A)", "OBJECT_ID": "2008-041A", "EPOCH": "2025-12-03T04:26:17.359296", "MEAN_MOTION": 14.83344196, "ECCENTRICITY": 0.0020656, "INCLINATION": 97.6535, "RA_OF_ASC_NODE": 325.8831, "ARG_OF_PERICENTER": 63.9745, "MEAN_ANOMALY": 296.3594, "EPHEMERIS_TYPE": 0, "CLASSIFICATION_TYPE": "U", "NORAD_CAT_ID": 33320, "ELEMENT_SET_NO": 999, "REV_AT_EPOCH": 92934, "BSTAR": 0.00024935, "MEAN_MOTION_DOT": 2e-05, "MEAN_MOTION_DDOT": 0}, "tle": {"line1": "1 33320U 08041A   25337.18492314  .00002000  00000+0  24935-3 0  9993", "line2": "2 33320  97.6535 325.8831 0020656  63.9745 296.3594 14.83344196929349"}}, "geometry": {"type": "Point", "coordinates": [-32.92120575523471, -6.944161071177656]}}, {"type": "Feature", "properties": {"norad_id": 33321, "name": "HUANJING 1B (HJ-1B)", "group": "dmc", "lat": -53.17509132172645, "lon": 139.53511996798062, "alt_km": 644.2084856576739, "timestamp": "2025-12-03T10:52:57.116569+00:00", "meta": {"OBJECT_NAME": "HUANJING 1B (HJ-1B)", "OBJECT_ID": "2008-041B", "EPOCH": "2025-12-03T04:58:33.624768", "MEAN_MOTION": 14.82780387, "ECCENTRICITY": 0.0038154, "INCLINATION": 97.6396, "RA_OF_ASC_NODE": 329.6264, "ARG_OF_PERICENTER": 105.8928, "MEAN_ANOMALY": 254.6497, "EPHEMERIS_TYPE": 0, "CLASSIFICATION_TYPE": "U", "NORAD_CAT_ID": 33321, "ELEMENT_SET_NO": 999, "REV_AT_EPOCH": 92936, "BSTAR": 0.0001995, "MEAN_MOTION_DOT": 1.582e-05, "MEAN_MOTION_DDOT": 0}, "tle": {"line1": "1 33321U 08041B   25337.20733362  .00001582  00000+0  19950-3 0  9993", "line2": "2 33321  97.6396 329.6264 0038154 105.8928 254.6497 14.82780387929364"}}, "geometry": {"type": "Point", "coordinates": [139.53511996798062, -53.17509132172645]}}, {"type": "Feature", "properties": {"norad_id": 33446, "name": "YAOGAN-4", "group": "dmc", "lat": 29.88640049453466, "lon": 92.2314640762078, "alt_km": 628.7352735326958, "timestamp": "2025-12-03T10:52:57.116582+00:00", "meta": {"OBJECT_NAME": "YAOGAN-4", "OBJECT_ID": "2008-061A", "EPOCH": "2025-12-02T19:37:56.076096", "MEAN_MOTION": 14.82631045, "ECCENTRICITY": 0.0014458, "INCLINATION": 97.9168, "RA_OF_ASC_NODE": 267.0155, "ARG_OF_PERICENTER": 356.4345, "MEAN_ANOMALY": 3.6763, "EPHEMERIS_TYPE": 0, "CLASSIFICATION_TYPE": "U", "NORAD_CAT_ID": 33446, "ELEMENT_SET_NO": 999, "REV_AT_EPOCH": 91656, "BSTAR": 0.00026598, "MEAN_MOTION_DOT": 2.092e-05, "MEAN_MOTION_DDOT": 0}, "tle": {"line1": "1 33446U 08061A   25336.81801014  .00002092  00000+0  26598-3 0  9992", "line2": "2 33446  97.9168 267.0155 0014458 356.4345   3.6763 14.82631045916566"}}, "geometry": {"type": "Point", "coordinates": [92.2314640762078, 29.88640049453466]}}, {"type": "Feature", "properties": {"norad_id": 35681, "name": "DEIMOS-1", "group": "dmc", "lat": 2.574992709778394, "lon": -41.16124347627573, "alt_km": 647.7534035344643, "timestamp": "2025-12-03T10:52:57.116594+00:00", "meta": {"OBJECT_NAME": "DEIMOS-1", "OBJECT_ID": "2009-041A", "EPOCH": "2025-12-03T05:11:49.157952", "MEAN_MOTION": 14.74928273, "ECCENTRICITY": 0.0002676, "INCLINATION": 97.7146, "RA_OF_ASC_NODE": 138.2637, "ARG_OF_PERICENTER": 97.2642, "MEAN_ANOMALY": 262.8872, "EPHEMERIS_TYPE": 0, "CLASSIFICATION_TYPE": "U", "NORAD_CAT_ID": 35681, "ELEMENT_SET_NO": 999, "REV_AT_EPOCH": 87799, "BSTAR": 0.00015362, "MEAN_MOTION_DOT": 9.84e-06, "MEAN_MOTION_DDOT": 0}, "tle": {"line1": "1 35681U 09041A   25337.21654118  .00000984  00000+0  15362-3 0  9995", "line2": "2 35681  97.7146 138.2637 0002676  97.2642 262.8872 14.74928273877992"}}, "geometry": {"type": "Point", "coordinates": [-41.16124347627573, 2.574992709778394]}}, {"type": "Feature", "properties": {"norad_id": 35683, "name": "UK-DMC 2", "group": "dmc", "lat": 9.744151824348112, "lon": -66.02254789231911, "alt_km": 644.6095073753331, "timestamp": "2025-12-03T10:52:57.116604+00:00", "meta": {"OBJECT_NAME": "UK-DMC 2", "OBJECT_ID": "2009-041C", "EPOCH": "2025-12-03T05:13:55.555968", "MEAN_MOTION": 14.75586686, "ECCENTRICITY": 0.0001285, "INCLINATION": 97.8556, "RA_OF_ASC_NODE": 112.3902, "ARG_OF_PERICENTER": 102.8417, "MEAN_ANOMALY": 257.2936, "EPHEMERIS_TYPE": 0, "CLASSIFICATION_TYPE": "U", "NORAD_CAT_ID": 35683, "ELEMENT_SET_NO": 999, "REV_AT_EPOCH": 87766, "BSTAR": 0.00021626, "MEAN_MOTION_DOT": 1.426e-05, "MEAN_MOTION_DDOT": 0}, "tle": {"line1": "1 35683U 09041C   25337.21800412  .00001426  00000+0  21626-3 0  9999", "line2": "2 35683  97.8556 112.3902 0001285 102.8417 257.2936 14.75586686877668"}}, "geometry": {"type": "Point", "coordinates": [-66.02254789231911, 9.744151824348112]}}, {"type": "Feature", "properties": {"norad_id": 40715, "name": "DMC3-FM1", "group": "dmc", "lat": -69.78770174860392, "lon": 3.5125391316084116, "alt_km": 620.4183567528598, "timestamp": "2025-12-03T10:52:57.116615+00:00", "meta": {"OBJECT_NAME": "DMC3-FM1", "OBJECT_ID": "2015-032A", "EPOCH": "2025-12-03T03:17:16.242720", "MEAN_MOTION": 14.85412547, "ECCENTRICITY": 0.0005349, "INCLINATION": 97.67, "RA_OF_ASC_NODE": 204.6789, "ARG_OF_PERICENTER": 355.2469, "MEAN_ANOMALY": 4.8695, "EPHEMERIS_TYPE": 0, "CLASSIFICATION_TYPE": "U", "NORAD_CAT_ID": 40715, "ELEMENT_SET_NO": 999, "REV_AT_EPOCH": 56080, "BSTAR": 0.00013955, "MEAN_MOTION_DOT": 1.151e-05, "MEAN_MOTION_DDOT": 0}, "tle": {"line1": "1 40715U 15032A   25337.13699355  .00001151  00000+0  13955-3 0  9992", "line2": "2 40715  97.6700 204.6789 0005349 355.2469   4.8695 14.85412547560801"}}, "geometry": {"type": "Point", "coordinates": [3.5125391316084116, -69.78770174860392]}}, {"type": "Feature", "properties": {"norad_id": 40716, "name": "DMC3-FM2", "group": "dmc", "lat": 48.305151810941844, "lon": 35.12880513715001, "alt_km": 610.8253164744538, "timestamp": "2025-12-03T10:52:57.116626+00:00", "meta": {"OBJECT_NAME": "DMC3-FM2", "OBJECT_ID": "2015-032B", "EPOCH": "2025-12-03T03:49:40.855296", "MEAN_MOTION": 14.85413803, "ECCENTRICITY": 0.0005999, "INCLINATION": 97.6757, "RA_OF_ASC_NODE": 206.1376, "ARG_OF_PERICENTER": 359.2804, "MEAN_ANOMALY": 0.8402, "EPHEMERIS_TYPE": 0, "CLASSIFICATION_TYPE": "U", "NORAD_CAT_ID": 40716, "ELEMENT_SET_NO": 999, "REV_AT_EPOCH": 56080, "BSTAR": 0.00014035, "MEAN_MOTION_DOT": 1.158e-05, "MEAN_MOTION_DDOT": 0}, "tle": {"line1": "1 40716U 15032B   25337.15950064  .00001158  00000+0  14035-3 0  9999", "line2": "2 40716  97.6757 206.1376 0005999 359.2804   0.8402 14.85413803560809"}}, "geometry": {"type": "Point", "coordinates": [35.12880513715001, 48.305151810941844]}}, {"type": "Feature", "properties": {"norad_id": 40717, "name": "DMC3-FM3", "group": "dmc", "lat": 15.486436711117738, "lon": -154.09513641309013, "alt_km": 609.5033593705184, "timestamp": "2025-12-03T10:52:57.116636+00:00", "meta": {"OBJECT_NAME": "DMC3-FM3", "OBJECT_ID": "2015-032C", "EPOCH": "2025-12-03T04:20:44.164608", "MEAN_MOTION": 14.85407654, "ECCENTRICITY": 0.0005358, "INCLINATION": 97.6811, "RA_OF_ASC_NODE": 207.7851, "ARG_OF_PERICENTER": 1.4256, "MEAN_ANOMALY": 358.6974, "EPHEMERIS_TYPE": 0, "CLASSIFICATION_TYPE": "U", "NORAD_CAT_ID": 40717, "ELEMENT_SET_NO": 999, "REV_AT_EPOCH": 56081, "BSTAR": 0.00011404, "MEAN_MOTION_DOT": 9.31e-06, "MEAN_MOTION_DDOT": 0}, "tle": {"line1": "1 40717U 15032C   25337.18106672  .00000931  00000+0  11404-3 0  9996", "line2": "2 40717  97.6811 207.7851 0005358   1.4256 358.6974 14.85407654560818"}}, "geometry": {"type": "Point", "coordinates": [-154.09513641309013, 15.486436711117738]}}]}